[
  {
    "name": "PLEIADES NEO 3",
    "line1": "1 48268U 21034A   26019.27652649 -.00000317  00000+0 -33638-4 0  9996",
    "line2": "2 48268  97.8945  96.1799 0001335  90.6453 269.4913 14.81671311255607",
    "catNr": 48268
  },
  {
    "name": "PLEIADES NEO 4",
    "line1": "1 49070U 21073E   26019.24274828  .00001345  00000+0  17752-3 0  9995",
    "line2": "2 49070  97.8948  96.1427 0001373  93.7445 266.3925 14.81674924239319",
    "catNr": 49070
  }
]